[{"OBJECT_NAME":"ONEWEB-0149","OBJECT_ID":"2021-025S","EPOCH":"2026-03-09T19:45:24.905088","MEAN_MOTION":13.13469787,"ECCENTRICITY":0.00016737,"INCLINATION":87.9044,"RA_OF_ASC_NODE":339.9829,"ARG_OF_PERICENTER":72.4362,"MEAN_ANOMALY":287.695,"EPHEMERIS_TYPE":0,"CLASSIFICATION_TYPE":"U","NORAD_CAT_ID":48058,"ELEMENT_SET_NO":999,"REV_AT_EPOCH":24044,"BSTAR":0.00091798532,"MEAN_MOTION_DOT":3.48e-6,"MEAN_MOTION_DDOT":0},{"OBJECT_NAME":"COSMOS 886 DEB","OBJECT_ID":"1976-126F","EPOCH":"2026-03-09T14:42:47.753280","MEAN_MOTION":12.71607358,"ECCENTRICITY":0.0917831,"INCLINATION":65.9284,"RA_OF_ASC_NODE":131.1795,"ARG_OF_PERICENTER":323.355,"MEAN_ANOMALY":30.7907,"EPHEMERIS_TYPE":0,"CLASSIFICATION_TYPE":"U","NORAD_CAT_ID":9649,"ELEMENT_SET_NO":999,"REV_AT_EPOCH":25029,"BSTAR":0.0010986,"MEAN_MOTION_DOT":1.236e-5,"MEAN_MOTION_DDOT":0}]
